{"type": "FeatureCollection", "features": [ {"type": "Feature", "properties": {"norad_id": 37867, "name": "COSMOS 2476 (744)", "group": "gnss", "lat": -2.4536944933971094, "lon": 77.54141321861928, "alt_km": 19163.952567676606, "timestamp": "2025-12-27T16:33:30.465609+00:00", "meta": {"OBJECT_NAME": "COSMOS 2476 (744)", "OBJECT_ID": "2011-064A", "EPOCH": "2025-12-27T05:38:18.293280", "MEAN_MOTION": 2.13103875, "ECCENTRICITY": 0.00245828, "INCLINATION": 65.1694, "RA_OF_ASC_NODE": 78.6813, "ARG_OF_PERICENTER": 235.16, "MEAN_ANOMALY": 132.8776, "EPHEMERIS_TYPE": 0, "CLASSIFICATION_TYPE": "U", "NORAD_CAT_ID": 37867, "ELEMENT_SET_NO": 999, "REV_AT_EPOCH": 11010, "BSTAR": 0, "MEAN_MOTION_DOT": -1.3e-07, "MEAN_MOTION_DDOT": 0}, "tle": {"line1": "1 37867U 11064A   25361.23493395 -.00000013  00000+0  00000+0 0  9991", "line2": "2 37867  65.1694  78.6813 0024582 235.1600 132.8776  2.13103875110102"}}, "geometry": {"type": "Point", "coordinates": [77.54141321861928, -2.4536944933971094]}}, {"type": "Feature", "properties": {"norad_id": 37868, "name": "COSMOS 2477 (745)", "group": "gnss", "lat": 2.004355591245286, "lon": -102.17263857851155, "alt_km": 19100.56776763407, "timestamp": "2025-12-27T16:33:30.465620+00:00", "meta": {"OBJECT_NAME": "COSMOS 2477 (745)", "OBJECT_ID": "2011-064B", "EPOCH": "2025-12-24T15:22:57.950400", "MEAN_MOTION": 2.13103036, "ECCENTRICITY": 0.00215718, "INCLINATION": 65.1748, "RA_OF_ASC_NODE": 78.8466, "ARG_OF_PERICENTER": 235.4688, "MEAN_ANOMALY": 123.4303, "EPHEMERIS_TYPE": 0, "CLASSIFICATION_TYPE": "U", "NORAD_CAT_ID": 37868, "ELEMENT_SET_NO": 999, "REV_AT_EPOCH": 11003, "BSTAR": 0, "MEAN_MOTION_DOT": 1e-08, "MEAN_MOTION_DDOT": 0}, "tle": {"line1": "1 37868U 11064B   25358.64094850  .00000001  00000+0  00000+0 0  9992", "line2": "2 37868  65.1748  78.8466 0021571 235.4688 123.4303  2.13103036110036"}}, "geometry": {"type": "Point", "coordinates": [-102.17263857851155, 2.004355591245286]}}, {"type": "Feature", "properties": {"norad_id": 37869, "name": "COSMOS 2475 (743)", "group": "gnss", "lat": 41.112825074597566, "lon": -125.00813793525488, "alt_km": 19154.662500400813, "timestamp": "2025-12-27T16:33:30.465631+00:00", "meta": {"OBJECT_NAME": "COSMOS 2475 (743)", "OBJECT_ID": "2011-064C", "EPOCH": "2025-12-26T02:48:59.782176", "MEAN_MOTION": 2.13101658, "ECCENTRICITY": 0.00268162, "INCLINATION": 65.1822, "RA_OF_ASC_NODE": 78.8169, "ARG_OF_PERICENTER": 249.2724, "MEAN_ANOMALY": 118.1607, "EPHEMERIS_TYPE": 0, "CLASSIFICATION_TYPE": "U", "NORAD_CAT_ID": 37869, "ELEMENT_SET_NO": 999, "REV_AT_EPOCH": 11008, "BSTAR": 0, "MEAN_MOTION_DOT": -5e-08, "MEAN_MOTION_DDOT": 0}, "tle": {"line1": "1 37869U 11064C   25360.11735859 -.00000005  00000+0  00000+0 0  9994", "line2": "2 37869  65.1822  78.8169 0026816 249.2724 118.1607  2.13101658110082"}}, "geometry": {"type": "Point", "coordinates": [-125.00813793525488, 41.112825074597566]}}, {"type": "Feature", "properties": {"norad_id": 37948, "name": "BEIDOU-2 IGSO-5 (C10)", "group": "gnss", "lat": 11.957502871209046, "lon": 82.68989829306904, "alt_km": 35533.218099626996, "timestamp": "2025-12-27T16:33:30.465642+00:00", "meta": {"OBJECT_NAME": "BEIDOU-2 IGSO-5 (C10)", "OBJECT_ID": "2011-073A", "EPOCH": "2025-12-26T17:38:23.606880", "MEAN_MOTION": 1.00287779, "ECCENTRICITY": 0.01096357, "INCLINATION": 47.994, "RA_OF_ASC_NODE": 273.6869, "ARG_OF_PERICENTER": 222.0715, "MEAN_ANOMALY": 318.062, "EPHEMERIS_TYPE": 0, "CLASSIFICATION_TYPE": "U", "NORAD_CAT_ID": 37948, "ELEMENT_SET_NO": 999, "REV_AT_EPOCH": 5140, "BSTAR": 0, "MEAN_MOTION_DOT": -1.46e-06, "MEAN_MOTION_DDOT": 0}, "tle": {"line1": "1 37948U 11073A   25360.73499545 -.00000146  00000+0  00000+0 0  9995", "line2": "2 37948  47.9940 273.6869 0109635 222.0715 318.0620  1.00287779 51401"}}, "geometry": {"type": "Point", "coordinates": [82.68989829306904, 11.957502871209046]}}, {"type": "Feature", "properties": {"norad_id": 37951, "name": "LUCH 5A (SDCM/PRN 140)", "group": "gnss", "lat": 8.058831639704959, "lon": 151.58362550418767, "alt_km": 35796.48648551426, "timestamp": "2025-12-27T16:33:30.465677+00:00", "meta": {"OBJECT_NAME": "LUCH 5A (SDCM/PRN 140)", "OBJECT_ID": "2011-074B", "EPOCH": "2025-12-27T12:05:03.090336", "MEAN_MOTION": 1.00268832, "ECCENTRICITY": 0.0005364, "INCLINATION": 8.3153, "RA_OF_ASC_NODE": 76.3658, "ARG_OF_PERICENTER": 193.2203, "MEAN_ANOMALY": 174.9069, "EPHEMERIS_TYPE": 0, "CLASSIFICATION_TYPE": "U", "NORAD_CAT_ID": 37951, "ELEMENT_SET_NO": 999, "REV_AT_EPOCH": 5133, "BSTAR": 0, "MEAN_MOTION_DOT": -3.1e-07, "MEAN_MOTION_DDOT": 0}, "tle": {"line1": "1 37951U 11074B   25361.50350799 -.00000031  00000+0  00000+0 0  9996", "line2": "2 37951   8.3153  76.3658 0005364 193.2203 174.9069  1.00268832 51338"}}, "geometry": {"type": "Point", "coordinates": [151.58362550418767, 8.058831639704959]}}, {"type": "Feature", "properties": {"norad_id": 38091, "name": "BEIDOU-2 G5 (C05)", "group": "gnss", "lat": -1.417836823735092, "lon": 43.68776332275269, "alt_km": 35797.3637513615, "timestamp": "2025-12-27T16:33:30.465699+00:00", "meta": {"OBJECT_NAME": "BEIDOU-2 G5 (C05)", "OBJECT_ID": "2012-008A", "EPOCH": "2025-12-27T11:34:13.542816", "MEAN_MOTION": 1.00270288, "ECCENTRICITY": 0.001321, "INCLINATION": 3.1436, "RA_OF_ASC_NODE": 70.6546, "ARG_OF_PERICENTER": 232.0727, "MEAN_ANOMALY": 25.7584, "EPHEMERIS_TYPE": 0, "CLASSIFICATION_TYPE": "U", "NORAD_CAT_ID": 38091, "ELEMENT_SET_NO": 999, "REV_AT_EPOCH": 5064, "BSTAR": 0, "MEAN_MOTION_DOT": 7.8e-07, "MEAN_MOTION_DDOT": 0}, "tle": {"line1": "1 38091U 12008A   25361.48210119  .00000078  00000+0  00000+0 0  9998", "line2": "2 38091   3.1436  70.6546 0013210 232.0727  25.7584  1.00270288 50642"}}, "geometry": {"type": "Point", "coordinates": [43.68776332275269, -1.417836823735092]}}, {"type": "Feature", "properties": {"norad_id": 38250, "name": "BEIDOU-2 M3 (C11)", "group": "gnss", "lat": -31.682466254300888, "lon": 155.32411219816126, "alt_km": 21494.785616305522, "timestamp": "2025-12-27T16:33:30.465711+00:00", "meta": {"OBJECT_NAME": "BEIDOU-2 M3 (C11)", "OBJECT_ID": "2012-018A", "EPOCH": "2025-12-26T06:54:56.796768", "MEAN_MOTION": 1.86230094, "ECCENTRICITY": 0.002406, "INCLINATION": 55.9085, "RA_OF_ASC_NODE": 310.7027, "ARG_OF_PERICENTER": 275.5278, "MEAN_ANOMALY": 84.2034, "EPHEMERIS_TYPE": 0, "CLASSIFICATION_TYPE": "U", "NORAD_CAT_ID": 38250, "ELEMENT_SET_NO": 999, "REV_AT_EPOCH": 9272, "BSTAR": 0, "MEAN_MOTION_DOT": -5.6e-07, "MEAN_MOTION_DDOT": 0}, "tle": {"line1": "1 38250U 12018A   25360.28815737 -.00000056  00000+0  00000+0 0  9997", "line2": "2 38250  55.9085 310.7027 0024060 275.5278  84.2034  1.86230094 92724"}}, "geometry": {"type": "Point", "coordinates": [155.32411219816126, -31.682466254300888]}}, {"type": "Feature", "properties": {"norad_id": 38251, "name": "BEIDOU-2 M4 (C12)", "group": "gnss", "lat": -55.51787398100872, "lon": -148.6935687469556, "alt_km": 21493.149472236197, "timestamp": "2025-12-27T16:33:30.465723+00:00", "meta": {"OBJECT_NAME": "BEIDOU-2 M4 (C12)", "OBJECT_ID": "2012-018B", "EPOCH": "2025-12-26T05:17:08.086272", "MEAN_MOTION": 1.86229697, "ECCENTRICITY": 0.0015168, "INCLINATION": 55.8099, "RA_OF_ASC_NODE": 309.9329, "ARG_OF_PERICENTER": 279.7877, "MEAN_ANOMALY": 80.0472, "EPHEMERIS_TYPE": 0, "CLASSIFICATION_TYPE": "U", "NORAD_CAT_ID": 38251, "ELEMENT_SET_NO": 999, "REV_AT_EPOCH": 9272, "BSTAR": 0, "MEAN_MOTION_DOT": -5.5e-07, "MEAN_MOTION_DDOT": 0}, "tle": {"line1": "1 38251U 12018B   25360.22023248 -.00000055  00000+0  00000+0 0  9999", "line2": "2 38251  55.8099 309.9329 0015168 279.7877  80.0472  1.86229697 92721"}}, "geometry": {"type": "Point", "coordinates": [-148.6935687469556, -55.51787398100872]}}, {"type": "Feature", "properties": {"norad_id": 38652, "name": "SES-5 (EGNOS/PRN 136)", "group": "gnss", "lat": 0.03662841434963131, "lon": -10.183409828264923, "alt_km": 35779.657905196014, "timestamp": "2025-12-27T16:33:30.465734+00:00", "meta": {"OBJECT_NAME": "SES-5 (EGNOS/PRN 136)", "OBJECT_ID": "2012-036A", "EPOCH": "2025-12-27T06:13:38.544096", "MEAN_MOTION": 1.00281278, "ECCENTRICITY": 0.0002452, "INCLINATION": 0.0588, "RA_OF_ASC_NODE": 304.2411, "ARG_OF_PERICENTER": 336.6829, "MEAN_ANOMALY": 273.4683, "EPHEMERIS_TYPE": 0, "CLASSIFICATION_TYPE": "U", "NORAD_CAT_ID": 38652, "ELEMENT_SET_NO": 999, "REV_AT_EPOCH": 4273, "BSTAR": 0, "MEAN_MOTION_DOT": 5.8e-07, "MEAN_MOTION_DDOT": 0}, "tle": {"line1": "1 38652U 12036A   25361.25947389  .00000058  00000+0  00000+0 0  9991", "line2": "2 38652   0.0588 304.2411 0002452 336.6829 273.4683  1.00281278 42730"}}, "geometry": {"type": "Point", "coordinates": [-10.183409828264923, 0.03662841434963131]}}, {"type": "Feature", "properties": {"norad_id": 38775, "name": "BEIDOU-2 M6 (C14)", "group": "gnss", "lat": 55.27777442018759, "lon": 175.14760304140043, "alt_km": 21535.72664327271, "timestamp": "2025-12-27T16:33:30.465748+00:00", "meta": {"OBJECT_NAME": "BEIDOU-2 M6 (C14)", "OBJECT_ID": "2012-050B", "EPOCH": "2025-12-24T07:41:05.368128", "MEAN_MOTION": 1.86230801, "ECCENTRICITY": 0.00114872, "INCLINATION": 56.388, "RA_OF_ASC_NODE": 68.6832, "ARG_OF_PERICENTER": 343.1884, "MEAN_ANOMALY": 16.8281, "EPHEMERIS_TYPE": 0, "CLASSIFICATION_TYPE": "U", "NORAD_CAT_ID": 38775, "ELEMENT_SET_NO": 999, "REV_AT_EPOCH": 9005, "BSTAR": 0, "MEAN_MOTION_DOT": -2.4e-07, "MEAN_MOTION_DDOT": 0}, "tle": {"line1": "1 38775U 12050B   25358.32020102 -.00000024  00000+0  00000+0 0  9996", "line2": "2 38775  56.3880  68.6832 0011487 343.1884  16.8281  1.86230801 90056"}}, "geometry": {"type": "Point", "coordinates": [175.14760304140043, 55.27777442018759]}}]}